{
  "type": "FeatureCollection",
  "features": [
    {
      "type": "Feature",
      "properties": {
        "norad_id": 28890,
        "name": "BEIJING 1",
        "group": "dmc",
        "lat": -75.55948427104966,
        "lon": 157.06079992103614,
        "alt_km": 700.3584756086002,
        "timestamp": "2025-12-21T03:56:50.520958+00:00",
        "meta_object_name": "BEIJING 1",
        "meta_object_id": "2005-043A",
        "meta_epoch": "2025-12-20T20:05:59.028864",
        "meta_mean_motion": 14.63373718,
        "meta_eccentricity": 0.0015707,
        "meta_inclination": 98.2658,
        "meta_ra_of_asc_node": 122.3638,
        "meta_arg_of_pericenter": 117.3371,
        "meta_mean_anomaly": 242.9431,
        "meta_ephemeris_type": 0,
        "meta_classification_type": "U",
        "meta_norad_cat_id": 28890,
        "meta_element_set_no": 999,
        "meta_rev_at_epoch": 7456,
        "meta_bstar": 8.8246e-05,
        "meta_mean_motion_dot": 4.08e-06,
        "meta_mean_motion_ddot": 0,
        "tle_line1": "1 28890U 05043A   25354.83748876  .00000408  00000+0  88246-4 0  9992",
        "tle_line2": "2 28890  98.2658 122.3638 0015707 117.3371 242.9431 14.63373718 74565"
      },
      "geometry": {
        "type": "Point",
        "coordinates": [
          157.06079992103614,
          -75.55948427104966
        ]
      }
    },
    {
      "type": "Feature",
      "properties": {
        "norad_id": 33320,
        "name": "HUANJING 1A (HJ-1A)",
        "group": "dmc",
        "lat": -15.610023866640582,
        "lon": 160.9577928137496,
        "alt_km": 636.9013614260721,
        "timestamp": "2025-12-21T03:56:50.520982+00:00",
        "meta_object_name": "HUANJING 1A (HJ-1A)",
        "meta_object_id": "2008-041A",
        "meta_epoch": "2025-12-20T20:35:33.565632",
        "meta_mean_motion": 14.83417227,
        "meta_eccentricity": 0.0019514,
        "meta_inclination": 97.6537,
        "meta_ra_of_asc_node": 342.8173,
        "meta_arg_of_pericenter": 8.733,
        "meta_mean_anomaly": 351.422,
        "meta_ephemeris_type": 0,
        "meta_classification_type": "U",
        "meta_norad_cat_id": 33320,
        "meta_element_set_no": 999,
        "meta_rev_at_epoch": 93196,
        "meta_bstar": 0.00014193,
        "meta_mean_motion_dot": 1.117e-05,
        "meta_mean_motion_ddot": 0,
        "tle_line1": "1 33320U 08041A   25354.85802738  .00001117  00000+0  14193-3 0  9994",
        "tle_line2": "2 33320  97.6537 342.8173 0019514   8.7330 351.4220 14.83417227931963"
      },
      "geometry": {
        "type": "Point",
        "coordinates": [
          160.9577928137496,
          -15.610023866640582
        ]
      }
    },
    {
      "type": "Feature",
      "properties": {
        "norad_id": 33321,
        "name": "HUANJING 1B (HJ-1B)",
        "group": "dmc",
        "lat": 38.76082721401107,
        "lon": -19.4006725523726,
        "alt_km": 591.2712109436779,
        "timestamp": "2025-12-21T03:56:50.520994+00:00",
        "meta_object_name": "HUANJING 1B (HJ-1B)",
        "meta_object_id": "2008-041B",
        "meta_epoch": "2025-12-20T21:17:39.888672",
        "meta_mean_motion": 14.82842295,
        "meta_eccentricity": 0.0038004,
        "meta_inclination": 97.6396,
        "meta_ra_of_asc_node": 346.521,
        "meta_arg_of_pericenter": 50.0476,
        "meta_mean_anomaly": 310.4066,
        "meta_ephemeris_type": 0,
        "meta_classification_type": "U",
        "meta_norad_cat_id": 33321,
        "meta_element_set_no": 999,
        "meta_rev_at_epoch": 93198,
        "meta_bstar": 0.00015754,
        "meta_mean_motion_dot": 1.24e-05,
        "meta_mean_motion_ddot": 0,
        "tle_line1": "1 33321U 08041B   25354.88726723  .00001240  00000+0  15754-3 0  9998",
        "tle_line2": "2 33321  97.6396 346.5210 0038004  50.0476 310.4066 14.82842295931987"
      },
      "geometry": {
        "type": "Point",
        "coordinates": [
          -19.4006725523726,
          38.76082721401107
        ]
      }
    },
    {
      "type": "Feature",
      "properties": {
        "norad_id": 33446,
        "name": "YAOGAN-4",
        "group": "dmc",
        "lat": -52.32927178911701,
        "lon": -64.43207621805652,
        "alt_km": 618.837427115649,
        "timestamp": "2025-12-21T03:56:50.521005+00:00",
        "meta_object_name": "YAOGAN-4",
        "meta_object_id": "2008-061A",
        "meta_epoch": "2025-12-20T07:07:49.061568",
        "meta_mean_motion": 14.82702731,
        "meta_eccentricity": 0.00131175,
        "meta_inclination": 97.9192,
        "meta_ra_of_asc_node": 284.3224,
        "meta_arg_of_pericenter": 296.7402,
        "meta_mean_anomaly": 63.2469,
        "meta_ephemeris_type": 0,
        "meta_classification_type": "U",
        "meta_norad_cat_id": 33446,
        "meta_element_set_no": 999,
        "meta_rev_at_epoch": 91915,
        "meta_bstar": 0.000123707,
        "meta_mean_motion_dot": 9.46e-06,
        "meta_mean_motion_ddot": 0,
        "tle_line1": "1 33446U 08061A   25354.29709562  .00000946  00000+0  12371-3 0  9999",
        "tle_line2": "2 33446  97.9192 284.3224 0013117 296.7402  63.2469 14.82702731919157"
      },
      "geometry": {
        "type": "Point",
        "coordinates": [
          -64.43207621805652,
          -52.32927178911701
        ]
      }
    },
    {
      "type": "Feature",
      "properties": {
        "norad_id": 35681,
        "name": "DEIMOS-1",
        "group": "dmc",
        "lat": -22.308771405254028,
        "lon": -27.813196959182143,
        "alt_km": 652.0003839565152,
        "timestamp": "2025-12-21T03:56:50.521015+00:00",
        "meta_object_name": "DEIMOS-1",
        "meta_object_id": "2009-041A",
        "meta_epoch": "2025-12-20T20:31:12.406080",
        "meta_mean_motion": 14.7496404,
        "meta_eccentricity": 0.0002593,
        "meta_inclination": 97.7144,
        "meta_ra_of_asc_node": 155.0802,
        "meta_arg_of_pericenter": 66.6697,
        "meta_mean_anomaly": 293.4785,
        "meta_ephemeris_type": 0,
        "meta_classification_type": "U",
        "meta_norad_cat_id": 35681,
        "meta_element_set_no": 999,
        "meta_rev_at_epoch": 88059,
        "meta_bstar": 7.0229e-05,
        "meta_mean_motion_dot": 4.25e-06,
        "meta_mean_motion_ddot": 0,
        "tle_line1": "1 35681U 09041A   25354.85500470  .00000425  00000+0  70229-4 0  9999",
        "tle_line2": "2 35681  97.7144 155.0802 0002593  66.6697 293.4785 14.74964040880594"
      },
      "geometry": {
        "type": "Point",
        "coordinates": [
          -27.813196959182143,
          -22.308771405254028
        ]
      }
    },
    {
      "type": "Feature",
      "properties": {
        "norad_id": 35683,
        "name": "UK-DMC 2",
        "group": "dmc",
        "lat": -57.13265963910163,
        "lon": -62.509979527757,
        "alt_km": 651.1104743674568,
        "timestamp": "2025-12-21T03:56:50.521025+00:00",
        "meta_object_name": "UK-DMC 2",
        "meta_object_id": "2009-041C",
        "meta_epoch": "2025-12-20T20:21:46.516320",
        "meta_mean_motion": 14.75638111,
        "meta_eccentricity": 0.000154,
        "meta_inclination": 97.8564,
        "meta_ra_of_asc_node": 129.5225,
        "meta_arg_of_pericenter": 93.418,
        "meta_mean_anomaly": 266.7206,
        "meta_ephemeris_type": 0,
        "meta_classification_type": "U",
        "meta_norad_cat_id": 35683,
        "meta_element_set_no": 999,
        "meta_rev_at_epoch": 88026,
        "meta_bstar": 0.00011808,
        "meta_mean_motion_dot": 7.57e-06,
        "meta_mean_motion_ddot": 0,
        "tle_line1": "1 35683U 09041C   25354.84845505  .00000757  00000+0  11808-3 0  9996",
        "tle_line2": "2 35683  97.8564 129.5225 0001540  93.4180 266.7206 14.75638111880267"
      },
      "geometry": {
        "type": "Point",
        "coordinates": [
          -62.509979527757,
          -57.13265963910163
        ]
      }
    },
    {
      "type": "Feature",
      "properties": {
        "norad_id": 40715,
        "name": "DMC3-FM1",
        "group": "dmc",
        "lat": -43.59411655694895,
        "lon": 34.67880913763242,
        "alt_km": 617.5436869042169,
        "timestamp": "2025-12-21T03:56:50.521035+00:00",
        "meta_object_name": "DMC3-FM1",
        "meta_object_id": "2015-032A",
        "meta_epoch": "2025-12-20T20:28:29.853120",
        "meta_mean_motion": 14.85452855,
        "meta_eccentricity": 0.0004163,
        "meta_inclination": 97.6689,
        "meta_ra_of_asc_node": 221.7496,
        "meta_arg_of_pericenter": 288.0656,
        "meta_mean_anomaly": 72.0106,
        "meta_ephemeris_type": 0,
        "meta_classification_type": "U",
        "meta_norad_cat_id": 40715,
        "meta_element_set_no": 999,
        "meta_rev_at_epoch": 56343,
        "meta_bstar": 0.00010115,
        "meta_mean_motion_dot": 8.21e-06,
        "meta_mean_motion_ddot": 0,
        "tle_line1": "1 40715U 15032A   25354.85312330  .00000821  00000+0  10115-3 0  9993",
        "tle_line2": "2 40715  97.6689 221.7496 0004163 288.0656  72.0106 14.85452855563438"
      },
      "geometry": {
        "type": "Point",
        "coordinates": [
          34.67880913763242,
          -43.59411655694895
        ]
      }
    },
    {
      "type": "Feature",
      "properties": {
        "norad_id": 40716,
        "name": "DMC3-FM2",
        "group": "dmc",
        "lat": 74.14553009388473,
        "lon": 71.84739106484257,
        "alt_km": 608.3002542210852,
        "timestamp": "2025-12-21T03:56:50.521044+00:00",
        "meta_object_name": "DMC3-FM2",
        "meta_object_id": "2015-032B",
        "meta_epoch": "2025-12-20T21:00:52.487136",
        "meta_mean_motion": 14.85457611,
        "meta_eccentricity": 0.0004683,
        "meta_inclination": 97.6748,
        "meta_ra_of_asc_node": 223.2212,
        "meta_arg_of_pericenter": 294.8032,
        "meta_mean_anomaly": 65.2696,
        "meta_ephemeris_type": 0,
        "meta_classification_type": "U",
        "meta_norad_cat_id": 40716,
        "meta_element_set_no": 999,
        "meta_rev_at_epoch": 56343,
        "meta_bstar": 0.00016228,
        "meta_mean_motion_dot": 1.348e-05,
        "meta_mean_motion_ddot": 0,
        "tle_line1": "1 40716U 15032B   25354.87560749  .00001348  00000+0  16228-3 0  9991",
        "tle_line2": "2 40716  97.6748 223.2212 0004683 294.8032  65.2696 14.85457611563431"
      },
      "geometry": {
        "type": "Point",
        "coordinates": [
          71.84739106484257,
          74.14553009388473
        ]
      }
    },
    {
      "type": "Feature",
      "properties": {
        "norad_id": 40717,
        "name": "DMC3-FM3",
        "group": "dmc",
        "lat": -12.041132033045287,
        "lon": -133.21216337216973,
        "alt_km": 614.897356048984,
        "timestamp": "2025-12-21T03:56:50.521054+00:00",
        "meta_object_name": "DMC3-FM3",
        "meta_object_id": "2015-032C",
        "meta_epoch": "2025-12-20T21:32:06.763200",
        "meta_mean_motion": 14.8544146,
        "meta_eccentricity": 0.0004087,
        "meta_inclination": 97.6804,
        "meta_ra_of_asc_node": 224.8806,
        "meta_arg_of_pericenter": 296.8971,
        "meta_mean_anomaly": 63.1826,
        "meta_ephemeris_type": 0,
        "meta_classification_type": "U",
        "meta_norad_cat_id": 40717,
        "meta_element_set_no": 999,
        "meta_rev_at_epoch": 56344,
        "meta_bstar": 4.8541e-05,
        "meta_mean_motion_dot": 3.67e-06,
        "meta_mean_motion_ddot": 0,
        "tle_line1": "1 40717U 15032C   25354.89730050  .00000367  00000+0  48541-4 0  9992",
        "tle_line2": "2 40717  97.6804 224.8806 0004087 296.8971  63.1826 14.85441460563441"
      },
      "geometry": {
        "type": "Point",
        "coordinates": [
          -133.21216337216973,
          -12.041132033045287
        ]
      }
    }
  ]
}